1 41181U 15081C   16159.84368991 -.00000096 +00000-0 +18007-4 0  9996,2 41181 047.0061 290.2761 0001825 322.0392 038.0350 14.43175990024579
1 41181U 15081C   16160.74370636 -.00000095  00000-0  18410-4 0  9993,2 41181  47.0057 286.1267 0001912 327.8464  32.2300 14.43176142 24705
1 41181U 15081C   16161.78218635 -.00000015  00000-0  42012-4 0  9995,2 41181  47.0058 281.3382 0001959 333.3790  26.7007 14.43176789 24851
1 41181U 15081C   16163.09759276  .00000152  00000-0  90976-4 0  9995,2 41181  47.0054 275.2731 0001925 337.8704  22.2098 14.43178019 25045
1 41181U 15081C   16164.48223009 -.00000049  00000-0  31844-4 0  9994,2 41181  47.0053 268.8893 0001754 342.9454  17.1286 14.43177610 25240
1 41181U 15081C   16164.68992741 -.00000065 +00000-0 +27243-4 0  9998,2 41181 047.0045 267.9324 0001676 342.3306 017.7511 14.43177474025271
1 41181U 15081C   16165.72840597 -.00000052  00000-0  31033-4 0  9993,2 41181  47.0039 263.1451 0001495 341.1921  18.8907 14.43177763 25421
1 41181U 15081C   16167.11304310  .00000149  00000-0  90121-4 0  9995,2 41181  47.0042 256.7609 0001486 342.8397  17.2447 14.43179265 25626
1 41181U 15081C   16168.35921656  .00000094  00000-0  74150-4 0  9993,2 41181  47.0040 251.0145 0001516 349.8498  10.2354 14.43179502 25804
1 41181U 15081C   16168.63614382 -.00000046 +00000-0 +32765-4 0  9993,2 41181 047.0036 249.7389 0001441 350.2515 009.8289 14.43178759025844
1 41181U 15081C   16169.60539168 -.00000197  00000-0 -11872-4 0  9993,2 41181  47.0030 245.2707 0001646 354.2528   5.8325 14.43178136 25989
1 41181U 15081C   16170.99002837  .00000059  00000-0  63613-4 0  9990,2 41181  47.0031 238.8855 0001664 359.1682   0.9202 14.43179610 26188
1 41181U 15081C   16172.16696844  .00000169  00000-0  96220-4 0  9990,2 41181  47.0028 233.4588 0001605   5.6125 354.4769 14.43180786 26358
1 41181U 15081C   16173.27467848 -.00000208  00000-0 -14927-4 0  9993,2 41181  47.0024 228.3546 0001441  11.3378 348.7479 14.43178946 26510
1 41181U 15081C   16174.52085216  .00000019  00000-0  52010-4 0  9990,2 41181  47.0014 222.6100 0001520  18.7416 341.3533 14.43180346 26690
1 41181U 15081C   16174.59008369 +.00000021 +00000-0 +52484-4 0  9999,2 41181 047.0014 222.2907 0001532 018.4530 341.6401 14.43180338026708
1 41181U 15081C   16175.55932873  .00000097  00000-0  74797-4 0  9996,2 41181  47.0014 217.8210 0001555  21.9822 338.1124 14.43180896 26840
1 41181U 15081C   16177.15165962 -.00000155  00000-0  56689-6 0  9999,2 41181  47.0008 210.4798 0001270  30.5228 329.5723 14.43180144 27074
1 41181U 15081C   16178.25936770  .00000011  00000-0  49449-4 0  9998,2 41181  47.0006 205.3718 0001289  32.6051 327.4908 14.43180922 27238
1 41181U 15081C   16179.29784301  .00000095  00000-0  74427-4 0  9990,2 41181  47.0011 200.5826 0001242  39.0912 321.0041 14.43181809 27386
1 41181U 15081C   16180.47478148  .00000125  00000-0  83222-4 0  9998,2 41181  47.0016 195.1549 0001162  45.0467 315.0488 14.43182559 27555
1 41181U 15081C   16180.54401351 +.00000126 +00000-0 +83373-4 0  9996,2 41181 047.0019 194.8365 0001201 043.3115 316.7848 14.43182616027568
1 41181U 15081C   16181.51325709 -.00000034  00000-0  36164-4 0  9991,2 41181  47.0029 190.3677 0001117  53.4615 306.6334 14.43182264 27702
1 41181U 15081C   16183.03635470  .00000055  00000-0  62446-4 0  9993,2 41181  47.0023 183.3449 0001144  57.9137 302.1886 14.43183318 27921
1 41181U 15081C   16184.14405871  .00000220  00000-0  11106-3 0  9996,2 41181  47.0012 178.2367 0001095  71.2760 288.8220 14.43184710 28084
1 41181U 15081C   16185.45945875  .00000265  00000-0  12436-3 0  9990,2 41181  47.0013 172.1733 0001097  74.7259 285.3741 14.43185845 28279
1 41181U 15081C   16185.80561623 +.00000281 +00000-0 +12920-3 0  9990,2 41181 047.0014 170.5769 0001074 076.3355 283.7654 14.43186290028327
1 41181U 15081C   16186.77485860  .00000011  00000-0  49476-4 0  9993,2 41181  47.0027 166.1091 0001094  85.3140 274.7874 14.43185529 28467
1 41181U 15081C   16187.81333110  .00000181  00000-0  99701-4 0  9993,2 41181  47.0020 161.3203 0001144  90.1815 269.9228 14.43186816 28617
1 41181U 15081C   16189.05949730  .00000075  00000-0  68476-4 0  9999,2 41181  47.0018 155.5748 0001107  94.0333 266.0669 14.43186892 28790
1 41181U 15081C   16190.37489712 -.00000163  00000-0 -16637-5 0  9998,2 41181  47.0033 149.5108 0001165  98.8843 261.2170 14.43185900 28986
1 41181U 15081C   16190.72105460 -.00000225 +00000-0 -20046-4 0  9999,2 41181 047.0036 147.9146 0001122 092.6214 267.4779 14.43185669029032
1 41181U 15081C   16191.89799065 -.00000119  00000-0  11141-4 0  9995,2 41181  47.0033 142.4894 0001107 106.1343 253.9702 14.43186313 29208
1 41181U 15081C   16193.00569309  .00000008  00000-0  48704-4 0  9997,2 41181  47.0031 137.3829 0001129 110.1609 249.9383 14.43187122 29367
1 41181U 15081C   16194.04416416 -.00000022  00000-0  39780-4 0  9993,2 41181  47.0033 132.5940 0001187 117.5548 242.5414 14.43187306 29512
1 41181U 15081C   16195.29033127 -.00000140  00000-0  51373-5 0  9999,2 41181  47.0028 126.8482 0001290 124.8175 235.2823 14.43186886 29699
1 41181U 15081C   16195.84418287 -.00000118 +00000-0 +11613-4 0  9991,2 41181 047.0025 124.2946 0001300 130.0848 230.0163 14.43187124029776
1 41181U 15081C   16196.81342185 -.00000043  00000-0  33569-4 0  9993,2 41181  47.0020 119.8307 0001158 149.2321 210.8627 14.43187834 29916
1 41181U 15081C   16196.88265331 -.00000052 +00000-0 +30986-4 0  9997,2 41181 047.0020 119.5116 0001166 149.3293 210.7654 14.43187803029813
1 41181U 15081C   16197.85189303 -.00000066  00000-0  26892-4 0  9995,2 41181  47.0020 115.0430 0001213 154.8207 205.2732 14.43187943 30062
1 41181U 15081C   16197.92112443 -.00000085 +00000-0 +21214-4 0  9998,2 41181 047.0020 114.7238 0001217 155.2430 204.8508 14.43187859029960
1 41181U 15081C   16199.09805835 -.00000084  00000-0  21618-4 0  9999,2 41181  47.0021 109.2976 0001292 161.3029 198.7899 14.43188020 30242
1 41181U 15081C   16200.13652934 -.00000079  00000-0  22985-4 0  9999,2 41181  47.0021 104.5097 0001346 166.6014 193.4902 14.43188176 30391
1 41181U 15081C   16201.17500012 -.00000087  00000-0  20545-4 0  9992,2 41181  47.0021  99.7218 0001399 171.8483 188.2419 14.43188293 30549
1 41181U 15081C   16202.49039627 -.00000074  00000-0  24354-4 0  9995,2 41181  47.0022  93.6571 0001468 177.9553 182.1333 14.43188557 30739
1 41181U 15081C   16202.90578448 -.00000083 +00000-0 +21883-4 0  9994,2 41181 047.0022 091.7419 0001500 179.8510 180.2370 14.43188566030684
1 41181U 15081C   16203.59809814 -.00000069  00000-0  25926-4 0  9990,2 41181  47.0023  88.5500 0001539 182.8962 177.1909 14.43188721 30896
1 41181U 15081C   16203.87502356 -.00000072 +00000-0 +25094-4 0  9992,2 41181 047.0023 087.2732 0001569 183.7890 176.2977 14.43188762030825
1 41181U 15081C   16204.84426259 -.00000078  00000-0  23345-4 0  9990,2 41181  47.0024  82.8045 0001627 187.6561 172.4293 14.43188879 31073
1 41181U 15081C   16204.91349395 -.00000077 +00000-0 +23459-4 0  9998,2 41181 047.0024 082.4853 0001632 187.8895 172.1959 14.43188888030978
1 41181U 15081C   16206.09042681 -.00000083  00000-0  21694-4 0  9993,2 41181  47.0024  77.0591 0001699 192.2840 167.7998 14.43189092 31253
1 41181U 15081C   16207.12889676 -.00000077  00000-0  23474-4 0  9992,2 41181  47.0024  72.2712 0001767 196.2290 163.8533 14.43189321 31408
1 41181U 15081C   16208.51352344 -.00000096  00000-0  18011-4 0  9995,2 41181  47.0024  65.8873 0001846 201.7667 158.3135 14.43189383 31609
1 41181U 15081C   16208.85968007 -.00000094 +00000-0 +18676-4 0  9996,2 41181 047.0024 064.2913 0001869 202.7773 157.3024 14.43189450031545
1 41181U 15081C   16209.82891853 -.00000092  00000-0  19182-4 0  9999,2 41181  47.0024  59.8225 0001924 206.2190 153.8592 14.43189606 31796
1 41181U 15081C   16209.89814985 -.00000091 +00000-0 +19503-4 0  9993,2 41181 047.0024 059.5033 0001924 206.4776 153.6005 14.43189619031692
1 41181U 15081C   16210.59046296 -.00000096 +00000-0 +18104-4 0  9995,2 41181 047.0024 056.3112 0001959 209.0630 151.0141 14.43189697031791
1 41181U 15081C   16211.55970120 -.00000087  00000-0  20666-4 0  9990,2 41181  47.0025  51.8424 0002000 212.5839 147.4917 14.43189886 32045
1 41181U 15081C   16211.90585769 -.00000078 +00000-0 +23185-4 0  9999,2 41181 047.0025 050.2465 0002019 213.7335 146.3416 14.43189979031984
1 41181U 15081C   16212.87509582 -.00000073  00000-0  24654-4 0  9992,2 41181  47.0026  45.7777 0002077 216.8637 143.2100 14.43190141 32231
1 41181U 15081C   16213.98279651 -.00000076  00000-0  23812-4 0  9994,2 41181  47.0027  40.6705 0002117 220.8450 139.2271 14.43190292 32398
1 41181U 15081C   16215.02126572 -.00000086  00000-0  21033-4 0  9998,2 41181  47.0028  35.8826 0002173 224.1629 135.9078 14.43190433 32548
1 41181U 15081C   16216.47512252 -.00000087  00000-0  20745-4 0  9992,2 41181  47.0029  29.1794 0002236 229.1101 130.9585 14.43190622 32750
1 41181U 15081C   16216.89051019 -.00000081 +00000-0 +22401-4 0  9992,2 41181 047.0029 027.2643 0002246 230.4192 129.6490 14.43190704032704
1 41181U 15081C   16217.51359153 -.00000081  00000-0  22430-4 0  9994,2 41181  47.0029  24.3915 0002287 232.3672 127.7000 14.43190804 32902
1 41181U 15081C   16218.82898555 -.00000086  00000-0  21004-4 0  9994,2 41181  47.0029  18.3268 0002324 236.6824 123.3833 14.43190974 33099
1 41181U 15081C   16218.89821680 -.00000085 +00000-0 +21076-4 0  9994,2 41181 047.0029 018.0077 0002328 236.8869 123.1788 14.43190988032999
1 41181U 15081C   16219.93668557 -.00000088  00000-0  20299-4 0  9991,2 41181  47.0030  13.2197 0002366 240.2618 119.8026 14.43191143 33255
1 41181U 15081C   16221.52900425 -.00000081  00000-0  22233-4 0  9995,2 41181  47.0031   5.8782 0002429 245.2750 114.7877 14.43191371 33481
1 41181U 15081C   16221.87516050 -.00000081 +00000-0 +22341-4 0  9990,2 41181 047.0032 004.2823 0002441 246.3178 113.7445 14.43191419033428
1 41181U 15081C   16222.77516664 -.00000081  00000-0  22389-4 0  9993,2 41181  47.0032   0.1329 0002471 249.2110 110.8504 14.43191541 33661
